#aV2009  9 13  0  0   .00000000      96 DD+AD WGS84 FIT  NGA
## 1549       .00000000   900.00000000 55087  .0000000000000
+   32     1  2  3  4  5  6  7  8  9 10 11 12 13 14 15 16 17
+         18 19 20 21 22 23 24 25 26 27 28 29 30 31 32  0  0
+          0  0  0  0  0  0  0  0  0  0  0  0  0  0  0  0  0
+          0  0  0  0  0  0  0  0  0  0  0  0  0  0  0  0  0
+          0  0  0  0  0  0  0  0  0  0  0  0  0  0  0  0  0
++         0  0  0  0  0  0  0  0  0  0  0  0  0  0  0  0  0
++         0  0  0  0  0  0  0  0  0  0  0  0  0  0  0  0  0
++         0  0  0  0  0  0  0  0  0  0  0  0  0  0  0  0  0
++         0  0  0  0  0  0  0  0  0  0  0  0  0  0  0  0  0
++         0  0  0  0  0  0  0  0  0  0  0  0  0  0  0  0  0
%c cc cc ccc ccc cccc cccc cccc cccc ccccc ccccc ccccc ccccc
%c cc cc ccc ccc cccc cccc cccc cccc ccccc ccccc ccccc ccccc
%f  0.0000000  0.000000000  0.00000000000  0.000000000000000
%f  0.0000000  0.000000000  0.00000000000  0.000000000000000
%i    0    0    0    0      0      0      0      0         0
%i    0    0    0    0      0      0      0      0         0
/*      NGA, ST. LOUIS,MO.                                  
/*   EPHEMERIS COMPUTED FROM  3 DAYS OF DATA                
/* CCCCCCCCCCCCCCCCCCCCCCCCCCCCCCCCCCCCCCCCCCCCCCCCCCCCCCCCC
/* CCCCCCCCCCCCCCCCCCCCCCCCCCCCCCCCCCCCCCCCCCCCCCCCCCCCCCCCC
*  2009  9 13 17  0   .00000000                                                 
P  1  12768.625793  17997.870192 -14957.610067    -57.844866                    
V  1 -17673.119818  -6620.072601 -23107.643874      -.003183                    
P  2 -23041.614278  12170.047317  -3849.945117    172.161131                    
V  2   1939.250355  -5838.795177 -31066.542322       .029592                    
P  3  11723.852680 -14264.821200  18635.603626    446.683709                    
V  3   6239.323463  23884.633913  14461.427408       .051361                    
P  4 -23198.936734   3888.910938 -12825.592398   -263.945885                    
V  4  12039.540857 -10781.572391 -24959.442517      -.173115                    
P  5 -19771.272125   3672.831669  17387.769088    -92.648857                    
V  5 -19024.369221 -11356.999178 -19096.959150       .117758                    
P  6  14041.475175 -10119.828236  20309.652020    238.344159                    
V  6   3814.909672  25243.567795  10118.719746       .064929                    
P  7  -5988.194426 -13952.396216  21762.102715     11.541368                    
V  7  23335.707388 -14868.322145  -3251.396279      -.006735                    
P  8 -17670.656402  -4633.406259  19428.049278   -221.077921                    
V  8  20993.028218 -12674.188493  15533.105744      -.015513                    
P  9 -11203.517046  19736.675090 -14409.120979     77.295383                    
V  9 -14963.593604   8558.161443  24552.294838       .020712                    
P 10 -17965.636527   5397.585440  18767.209431    -23.484862                    
V 10 -20592.805156 -12538.403285 -15637.198979      -.008623                    
P 11   6252.392710 -22019.821583 -13396.240277    -19.464502                    
V 11  14751.684715  -9397.497560  23076.194009      -.017213                    
P 12   -209.973222  16170.707992 -21035.615755   -219.504191                    
V 12 -24136.471535 -11650.151549  -8570.800171       .057056                    
P 13  -6187.750423 -23872.155747   9713.326322    304.557262                    
V 13   1667.535114 -12475.610487 -29233.331878       .005102                    
P 14  13491.444559  10506.416933 -20230.431097    -51.456892                    
V 14   -360.312064  25878.351546  12988.606216       .052360                    
P 15  -8385.016161  20969.441767  13950.094907   -318.101368                    
V 15  -3567.985665 -17498.826936  24273.991263      -.011405                    
P 16  21612.703460   -610.970266  15635.026263     13.114422                    
V 16  16563.748453  10700.707099 -22304.674892      -.038842                    
P 17 -14233.701466 -10564.453750 -19768.441529     84.668720                    
V 17    164.496234 -25224.475032  13119.814654       .030074                    
P 18  17940.899797  17557.796884   9487.291519     12.549074                    
V 18 -11528.927206  -3097.880351  27896.193057       .028766                    
P 19   8910.252764 -21782.063480  12089.302000     10.959228                    
V 19   2316.696474  15429.650572  26464.507455      -.016665                    
P 20  -2728.978446 -17429.659343 -19991.133413     72.378133                    
V 20  23292.669610   9631.819927 -11603.616659      -.009018                    
P 21  10550.498276  12127.669070  21462.611795     -8.955244                    
V 21 -22535.791226  14251.962810   2436.062556      -.022574                    
P 22  23841.093514  11666.583762  -1651.813955    191.096068                    
V 22    352.436648   4139.926210  31099.910662      -.007012                    
P 23   1306.066984 -26092.309567  -3786.377499    388.610405                    
V 23   2981.048668   4659.873741 -31676.202802      -.003682                    
P 24  -4904.782656  18393.447078  18747.173991    220.290292                    
V 24 -20998.642688  10633.349787 -15782.197372       .030318                    
P 25   1140.718768 -18176.846270  19737.508187    592.902630                    
V 25  19548.575765 -14370.104226 -14430.005552       .148541                    
P 26  10969.521843  17560.073287 -16874.182211     62.865283                    
V 26  -1383.953164  20544.719911  21628.375692      -.009656                    
P 27 -15967.768273  19057.634330  -8619.411211     82.440794                    
V 27 -10958.736619   5193.305420  29486.381780       .032194                    
P 28 -23052.751437 -13512.578701   1199.689329    -26.165892                    
V 28   1977.807173  -1576.816763  31649.535110       .000411                    
P 29   5732.967661  24975.901170   7165.698865     57.125421                    
V 29  -2363.615036   9033.619782 -29955.857119       .034831                    
P 30  11179.144169  17934.134940 -16515.457510    176.612345                    
V 30 -19217.485315  -6648.876483 -20647.485656       .031402                    
P 31  23265.075159  -6175.166337 -11182.003228    -64.400389                    
V 31 -10970.332984   9603.851987 -27482.276300       .003697                    
P 32   5766.736315 -14004.821911 -21450.340050    197.269071                    
V 32  24017.642283  14654.870496  -2785.382704      -.070587                    
EOF
